[{"OBJECT_NAME":"STARLINK-3343","OBJECT_ID":"2022-001V","EPOCH":"2026-03-09T13:04:03.021888","MEAN_MOTION":15.08848779,"ECCENTRICITY":8.765e-5,"INCLINATION":53.2169,"RA_OF_ASC_NODE":169.7745,"ARG_OF_PERICENTER":121.0402,"MEAN_ANOMALY":239.0677,"EPHEMERIS_TYPE":0,"CLASSIFICATION_TYPE":"U","NORAD_CAT_ID":50822,"ELEMENT_SET_NO":999,"REV_AT_EPOCH":23038,"BSTAR":-1.1880335e-5,"MEAN_MOTION_DOT":-4.77e-6,"MEAN_MOTION_DDOT":0},{"OBJECT_NAME":"THOR ABLESTAR DEB","OBJECT_ID":"1961-015G","EPOCH":"2026-03-09T12:36:21.518784","MEAN_MOTION":14.9924172,"ECCENTRICITY":0.00458994,"INCLINATION":66.74,"RA_OF_ASC_NODE":114.2823,"ARG_OF_PERICENTER":282.1843,"MEAN_ANOMALY":77.4151,"EPHEMERIS_TYPE":0,"CLASSIFICATION_TYPE":"U","NORAD_CAT_ID":122,"ELEMENT_SET_NO":999,"REV_AT_EPOCH":37932,"BSTAR":0.00092278357,"MEAN_MOTION_DOT":0.00011411,"MEAN_MOTION_DDOT":0}]
